$$SOE
2461295.500000000, A.D. 2026-Sep-12 00:00:00.0000, 2.773843695500973E+08, 3.187944038715708E+08, 9.963985430401033E+07,
2461302.500000000, A.D. 2026-Sep-19 00:00:00.0000, 2.691624059325696E+08, 3.259073506568395E+08, 1.013343321347610E+08,
2461309.500000000, A.D. 2026-Sep-26 00:00:00.0000, 2.607813158533490E+08, 3.328276298869389E+08, 1.029689040967294E+08,
2461316.500000000, A.D. 2026-Oct-03 00:00:00.0000, 2.522466013690717E+08, 3.395518509418424E+08, 1.045428210514935E+08,
2461323.500000000, A.D. 2026-Oct-10 00:00:00.0000, 2.435638378706650E+08, 3.460767916596028E+08, 1.060553838312193E+08,
2461330.500000000, A.D. 2026-Oct-17 00:00:00.0000, 2.347386672571858E+08, 3.523993995127712E+08, 1.075059433062569E+08,
2461337.500000000, A.D. 2026-Oct-24 00:00:00.0000, 2.257767911330237E+08, 3.585167923929001E+08, 1.088939003641551E+08,
2461344.500000000, A.D. 2026-Oct-31 00:00:00.0000, 2.166839641439977E+08, 3.644262589425214E+08, 1.102187057883040E+08,
2461351.500000000, A.D. 2026-Nov-07 00:00:00.0000, 2.074659878076755E+08, 3.701252585152698E+08, 1.114798600138911E+08,
2461358.500000000, A.D. 2026-Nov-14 00:00:00.0000, 1.981287050547186E+08, 3.756114216581337E+08, 1.126769128176825E+08,
2461365.500000000, A.D. 2026-Nov-21 00:00:00.0000, 1.886779936833830E+08, 3.808825518024551E+08, 1.138094631644856E+08,
2461372.500000000, A.D. 2026-Nov-28 00:00:00.0000, 1.791197577378055E+08, 3.859366251614649E+08, 1.148771590567011E+08,
2461379.500000000, A.D. 2026-Dec-05 00:00:00.0000, 1.694599204387223E+08, 3.907717881904103E+08, 1.158796970052769E+08,
2461386.500000000, A.D. 2026-Dec-12 00:00:00.0000, 1.597044188435279E+08, 3.953863557329892E+08, 1.168168213658333E+08,
2461393.500000000, A.D. 2026-Dec-19 00:00:00.0000, 1.498591983586704E+08, 3.997788098717378E+08, 1.176883237176314E+08,
2461400.500000000, A.D. 2026-Dec-26 00:00:00.0000, 1.399302069714518E+08, 4.039477986264612E+08, 1.184940422320819E+08,
2461407.500000000, A.D. 2027-Jan-02 00:00:00.0000, 1.299233894862462E+08, 4.078921343220214E+08, 1.192338609944786E+08,
2461414.500000000, A.D. 2027-Jan-09 00:00:00.0000, 1.198446818901200E+08, 4.116107916573866E+08, 1.199077092740373E+08,
2461421.500000000, A.D. 2027-Jan-16 00:00:00.0000, 1.097000058896046E+08, 4.151029054961207E+08, 1.205155607434685E+08,
2461428.500000000, A.D. 2027-Jan-23 00:00:00.0000, 9.949526366942666E+07, 4.183677683499168E+08, 1.210574326440911E+08,
2461435.500000000, A.D. 2027-Jan-30 00:00:00.0000, 8.923633306433551E+07, 4.214048275187268E+08, 1.215333848786888E+08,
2461442.500000000, A.D. 2027-Feb-06 00:00:00.0000, 7.892906357113583E+07, 4.242136822393811E+08, 1.219435190243768E+08,
2461449.500000000, A.D. 2027-Feb-13 00:00:00.0000, 6.857927274302316E+07, 4.267940820747466E+08, 1.222879774109321E+08,
2461456.500000000, A.D. 2027-Feb-20 00:00:00.0000, 5.819274060480560E+07, 4.291459257625811E+08, 1.225669424191417E+08,
2461463.500000000, A.D. 2027-Feb-27 00:00:00.0000, 4.777520348402533E+07, 4.312692573192941E+08, 1.227806356103506E+08,
2461470.500000000, A.D. 2027-Mar-06 00:00:00.0000, 3.733235027496479E+07, 4.331642613345291E+08, 1.229293165715296E+08,
2461477.500000000, A.D. 2027-Mar-13 00:00:00.0000, 2.686981953687653E+07, 4.348312595187181E+08, 1.230132817937022E+08,
2461484.500000000, A.D. 2027-Mar-20 00:00:00.0000, 1.639319629722827E+07, 4.362707076788344E+08, 1.230328636214191E+08,
2461491.500000000, A.D. 2027-Mar-27 00:00:00.0000, 5.908008760735257E+06, 4.374831925833155E+08, 1.229884292123768E+08,
2461498.500000000, A.D. 2027-Apr-03 00:00:00.0000, -4.580274874576154E+06, 4.384694286785795E+08, 1.228803794873571E+08,
2461505.500000000, A.D. 2027-Apr-10 00:00:00.0000, -1.506624943503923E+07, 4.392302546901194E+08, 1.227091480694104E+08,
2461512.500000000, A.D. 2027-Apr-17 00:00:00.0000, -2.554457560311510E+07, 4.397666301033685E+08, 1.224752002116287E+08,
2461519.500000000, A.D. 2027-Apr-24 00:00:00.0000, -3.600998248695745E+07, 4.400796314712279E+08, 1.221790317035780E+08,
2461526.500000000, A.D. 2027-May-01 00:00:00.0000, -4.645726963161529E+07, 4.401704485847322E+08, 1.218211677335196E+08,
2461533.500000000, A.D. 2027-May-08 00:00:00.0000, -5.688130816853890E+07, 4.400403812640151E+08, 1.214021617418529E+08,
2461540.500000000, A.D. 2027-May-15 00:00:00.0000, -6.727704260395598E+07, 4.396908377321756E+08, 1.209225944835727E+08,
2461547.500000000, A.D. 2027-May-22 00:00:00.0000, -7.763949481269836E+07, 4.391233319871278E+08, 1.203830732327956E+08,
2461554.500000000, A.D. 2027-May-29 00:00:00.0000, -8.796376688695799E+07, 4.383394787075836E+08, 1.197842307025244E+08,
2461561.500000000, A.D. 2027-Jun-05 00:00:00.0000, -9.824504196183188E+07, 4.373409888329962E+08, 1.191267238571212E+08,
2461568.500000000, A.D. 2027-Jun-12 00:00:00.0000, -1.084785850295212E+08, 4.361296662572751E+08, 1.184112328392206E+08,
2461575.500000000, A.D. 2027-Jun-19 00:00:00.0000, -1.186597440777407E+08, 4.347074047067443E+08, 1.176384599664048E+08,
2461582.500000000, A.D. 2027-Jun-26 00:00:00.0000, -1.287839512783411E+08, 4.330761845461174E+08, 1.168091287520961E+08,
2461589.500000000, A.D. 2027-Jul-03 00:00:00.0000, -1.388467240995507E+08, 4.312380695259830E+08, 1.159239829407831E+08,
2461596.500000000, A.D. 2027-Jul-10 00:00:00.0000, -1.488436663102937E+08, 4.291952034854915E+08, 1.149837855563661E+08,
2461603.500000000, A.D. 2027-Jul-17 00:00:00.0000, -1.587704688451754E+08, 4.269498069757876E+08, 1.139893179582716E+08,
2461610.500000000, A.D. 2027-Jul-24 00:00:00.0000, -1.686229103783554E+08, 4.245041737448342E+08, 1.129413788865633E+08,
2461617.500000000, A.D. 2027-Jul-31 00:00:00.0000, -1.783968571997066E+08, 4.218606673214661E+08, 1.118407834778516E+08,
2461624.500000000, A.D. 2027-Aug-07 00:00:00.0000, -1.880882625997928E+08, 4.190217188523096E+08, 1.106883623648510E+08,
2461631.500000000, A.D. 2027-Aug-14 00:00:00.0000, -1.976931680709669E+08, 4.159898259409811E+08, 1.094849610506520E+08,
2461638.500000000, A.D. 2027-Aug-21 00:00:00.0000, -2.072077057114294E+08, 4.127675491268604E+08, 1.082314392263657E+08,
2461645.500000000, A.D. 2027-Aug-28 00:00:00.0000, -2.166280984079356E+08, 4.093575072070189E+08, 1.069286698162147E+08,
2461652.500000000, A.D. 2027-Sep-04 00:00:00.0000, -2.259506589860024E+08, 4.057623739076098E+08, 1.055775380644867E+08,
2461659.500000000, A.D. 2027-Sep-11 00:00:00.0000, -2.351717897278410E+08, 4.019848752477253E+08, 1.041789407391640E+08,
2461666.500000000, A.D. 2027-Sep-18 00:00:00.0000, -2.442879821287242E+08, 3.980277869474677E+08, 1.027337853866829E+08,
2461673.500000000, A.D. 2027-Sep-25 00:00:00.0000, -2.532958166672121E+08, 3.938939318035454E+08, 1.012429896099958E+08,
2461680.500000000, A.D. 2027-Oct-02 00:00:00.0000, -2.621919625187087E+08, 3.895861770606550E+08, 9.970748036479571E+07,
2461687.500000000, A.D. 2027-Oct-09 00:00:00.0000, -2.709731771944179E+08, 3.851074317747098E+08, 9.812819327098761E+07,
2461694.500000000, A.D. 2027-Oct-16 00:00:00.0000, -2.796363060469609E+08, 3.804606441134337E+08, 9.650607192867342E+07,
2461701.500000000, A.D. 2027-Oct-23 00:00:00.0000, -2.881782813870704E+08, 3.756487985887919E+08, 9.484206721392328E+07,
2461708.500000000, A.D. 2027-Oct-30 00:00:00.0000, -2.965961208409982E+08, 3.706749138314865E+08, 9.313713656947763E+07,
2461715.500000000, A.D. 2027-Nov-06 00:00:00.0000, -3.048869261169218E+08, 3.655420420359054E+08, 9.139224348914574E+07,
2461722.500000000, A.D. 2027-Nov-13 00:00:00.0000, -3.130478841700895E+08, 3.602532680004642E+08, 8.960835720829526E+07,
2461729.500000000, A.D. 2027-Nov-20 00:00:00.0000, -3.210762678669285E+08, 3.548117055768132E+08, 8.778645215496649E+07,
2461736.500000000, A.D. 2027-Nov-27 00:00:00.0000, -3.289694345339559E+08, 3.492204944897387E+08, 8.592750725482866E+07,
2461743.500000000, A.D. 2027-Dec-04 00:00:00.0000, -3.367248244203143E+08, 3.434827984413432E+08, 8.403250535034843E+07,
2461750.500000000, A.D. 2027-Dec-11 00:00:00.0000, -3.443399596282566E+08, 3.376018035359395E+08, 8.210243270583893E+07,
2461757.500000000, A.D. 2027-Dec-18 00:00:00.0000, -3.518124432394719E+08, 3.315807166858431E+08, 8.013827854509230E+07,
2461764.500000000, A.D. 2027-Dec-25 00:00:00.0000, -3.591399584882467E+08, 3.254227639947529E+08, 7.814103460710597E+07,
2461771.500000000, A.D. 2028-Jan-01 00:00:00.0000, -3.663202679430922E+08, 3.191311891322072E+08, 7.611169471698478E+07,
$$EOE